[Satellite]
VERSION=1.1
NAME=SL-16 R/B
NICKNAME=SL-16 R/B
TLE1=1 19650U 88102B   15055.18744170 -.00000102  00000-0 -27449-4 0  9993
TLE2=2 19650  71.0022 349.7148 0013559  17.8581  81.6901 14.15702934356548
